{
  "type": "FeatureCollection",
  "features": [
    {
      "type": "Feature",
      "properties": {
        "norad_id": 36729,
        "name": "FENGYUN 1C DEB",
        "group": "fengyun-1c-debris",
        "lat": -75.85116115560976,
        "lon": 19.53819590909015,
        "alt_km": 851.7471641202592,
        "timestamp": "2025-12-26T17:24:55.008133+00:00",
        "meta_object_name": "FENGYUN 1C DEB",
        "meta_object_id": "1999-025EBB",
        "meta_epoch": "2025-12-26T04:10:03.962208",
        "meta_mean_motion": 14.1032958,
        "meta_eccentricity": 0.00455754,
        "meta_inclination": 98.7094,
        "meta_ra_of_asc_node": 341.554,
        "meta_arg_of_pericenter": 217.2667,
        "meta_mean_anomaly": 142.5339,
        "meta_ephemeris_type": 0,
        "meta_classification_type": "U",
        "meta_norad_cat_id": 36729,
        "meta_element_set_no": 999,
        "meta_rev_at_epoch": 87441,
        "meta_bstar": 0.000290774,
        "meta_mean_motion_dot": 4.78e-06,
        "meta_mean_motion_ddot": 0,
        "tle_line1": "1 36729U 99025EBB 25360.17365697  .00000478  00000+0  29077-3 0  9998",
        "tle_line2": "2 36729  98.7094 341.5540 0045575 217.2667 142.5339 14.10329580874419"
      },
      "geometry": {
        "type": "Point",
        "coordinates": [
          19.53819590909015,
          -75.85116115560976
        ]
      }
    },
    {
      "type": "Feature",
      "properties": {
        "norad_id": 36734,
        "name": "FENGYUN 1C DEB",
        "group": "fengyun-1c-debris",
        "lat": 72.89202043510825,
        "lon": -100.71245763667365,
        "alt_km": 791.6480485054353,
        "timestamp": "2025-12-26T17:24:55.008142+00:00",
        "meta_object_name": "FENGYUN 1C DEB",
        "meta_object_id": "1999-025EBG",
        "meta_epoch": "2025-12-26T01:46:06.958560",
        "meta_mean_motion": 14.25955945,
        "meta_eccentricity": 0.00366843,
        "meta_inclination": 99.055,
        "meta_ra_of_asc_node": 47.4086,
        "meta_arg_of_pericenter": 182.1652,
        "meta_mean_anomaly": 177.9373,
        "meta_ephemeris_type": 0,
        "meta_classification_type": "U",
        "meta_norad_cat_id": 36734,
        "meta_element_set_no": 999,
        "meta_rev_at_epoch": 82924,
        "meta_bstar": 0.0016001299,
        "meta_mean_motion_dot": 3.797e-05,
        "meta_mean_motion_ddot": 0,
        "tle_line1": "1 36734U 99025EBG 25360.07369165  .00003797  00000+0  16001-2 0  9996",
        "tle_line2": "2 36734  99.0550  47.4086 0036684 182.1652 177.9373 14.25955945829245"
      },
      "geometry": {
        "type": "Point",
        "coordinates": [
          -100.71245763667365,
          72.89202043510825
        ]
      }
    },
    {
      "type": "Feature",
      "properties": {
        "norad_id": 36736,
        "name": "FENGYUN 1C DEB",
        "group": "fengyun-1c-debris",
        "lat": -4.506478982144726,
        "lon": -106.45611099006442,
        "alt_km": 805.551516315466,
        "timestamp": "2025-12-26T17:24:55.008152+00:00",
        "meta_object_name": "FENGYUN 1C DEB",
        "meta_object_id": "1999-025EBJ",
        "meta_epoch": "2025-12-19T22:50:38.532768",
        "meta_mean_motion": 14.25518256,
        "meta_eccentricity": 0.00607429,
        "meta_inclination": 98.8062,
        "meta_ra_of_asc_node": 67.4431,
        "meta_arg_of_pericenter": 119.7313,
        "meta_mean_anomaly": 240.9929,
        "meta_ephemeris_type": 0,
        "meta_classification_type": "U",
        "meta_norad_cat_id": 36736,
        "meta_element_set_no": 999,
        "meta_rev_at_epoch": 88718,
        "meta_bstar": 0.0010514399,
        "meta_mean_motion_dot": 2.49e-05,
        "meta_mean_motion_ddot": 0,
        "tle_line1": "1 36736U 99025EBJ 25353.95183487  .00002490  00000+0  10514-2 0  9990",
        "tle_line2": "2 36736  98.8062  67.4431 0060742 119.7313 240.9929 14.25518256887185"
      },
      "geometry": {
        "type": "Point",
        "coordinates": [
          -106.45611099006442,
          -4.506478982144726
        ]
      }
    },
    {
      "type": "Feature",
      "properties": {
        "norad_id": 36743,
        "name": "FENGYUN 1C DEB",
        "group": "fengyun-1c-debris",
        "lat": 35.756833630735485,
        "lon": 42.59456586688113,
        "alt_km": 777.345807516258,
        "timestamp": "2025-12-26T17:24:55.008162+00:00",
        "meta_object_name": "FENGYUN 1C DEB",
        "meta_object_id": "1999-025EBR",
        "meta_epoch": "2025-12-15T20:48:16.336800",
        "meta_mean_motion": 14.29116099,
        "meta_eccentricity": 0.0047177,
        "meta_inclination": 98.6557,
        "meta_ra_of_asc_node": 38.1117,
        "meta_arg_of_pericenter": 3.5743,
        "meta_mean_anomaly": 356.5766,
        "meta_ephemeris_type": 0,
        "meta_classification_type": "U",
        "meta_norad_cat_id": 36743,
        "meta_element_set_no": 999,
        "meta_rev_at_epoch": 60782,
        "meta_bstar": 0.00095050245,
        "meta_mean_motion_dot": 2.395e-05,
        "meta_mean_motion_ddot": 0,
        "tle_line1": "1 36743U 99025EBR 25349.86685575  .00002395  00000+0  95050-3 0  9991",
        "tle_line2": "2 36743  98.6557  38.1117 0047177   3.5743 356.5766 14.29116099607827"
      },
      "geometry": {
        "type": "Point",
        "coordinates": [
          42.59456586688113,
          35.756833630735485
        ]
      }
    },
    {
      "type": "Feature",
      "properties": {
        "norad_id": 36986,
        "name": "FENGYUN 1C DEB",
        "group": "fengyun-1c-debris",
        "lat": -13.876412812051726,
        "lon": 69.34604378378702,
        "alt_km": 898.7581889118937,
        "timestamp": "2025-12-26T17:24:55.008172+00:00",
        "meta_object_name": "FENGYUN 1C DEB",
        "meta_object_id": "1999-025EBS",
        "meta_epoch": "2025-12-20T22:17:23.796096",
        "meta_mean_motion": 14.14646349,
        "meta_eccentricity": 0.0088071,
        "meta_inclination": 99.1446,
        "meta_ra_of_asc_node": 61.1301,
        "meta_arg_of_pericenter": 219.0076,
        "meta_mean_anomaly": 140.4722,
        "meta_ephemeris_type": 0,
        "meta_classification_type": "U",
        "meta_norad_cat_id": 36986,
        "meta_element_set_no": 999,
        "meta_rev_at_epoch": 81860,
        "meta_bstar": 0.0013942,
        "meta_mean_motion_dot": 2.737e-05,
        "meta_mean_motion_ddot": 0,
        "tle_line1": "1 36986U 99025EBS 25354.92874764  .00002737  00000+0  13942-2 0  9992",
        "tle_line2": "2 36986  99.1446  61.1301 0088071 219.0076 140.4722 14.14646349818603"
      },
      "geometry": {
        "type": "Point",
        "coordinates": [
          69.34604378378702,
          -13.876412812051726
        ]
      }
    },
    {
      "type": "Feature",
      "properties": {
        "norad_id": 36987,
        "name": "FENGYUN 1C DEB",
        "group": "fengyun-1c-debris",
        "lat": 37.368108753207885,
        "lon": -125.79682045586054,
        "alt_km": 865.4566112575612,
        "timestamp": "2025-12-26T17:24:55.008182+00:00",
        "meta_object_name": "FENGYUN 1C DEB",
        "meta_object_id": "1999-025EBT",
        "meta_epoch": "2025-12-19T22:53:32.054208",
        "meta_mean_motion": 13.45891786,
        "meta_eccentricity": 0.0320403,
        "meta_inclination": 100.8195,
        "meta_ra_of_asc_node": 235.2948,
        "meta_arg_of_pericenter": 29.8332,
        "meta_mean_anomaly": 332.0644,
        "meta_ephemeris_type": 0,
        "meta_classification_type": "U",
        "meta_norad_cat_id": 36987,
        "meta_element_set_no": 999,
        "meta_rev_at_epoch": 60974,
        "meta_bstar": 0.0011449,
        "meta_mean_motion_dot": 8.81e-06,
        "meta_mean_motion_ddot": 0,
        "tle_line1": "1 36987U 99025EBT 25353.95384322  .00000881  00000+0  11449-2 0  9999",
        "tle_line2": "2 36987 100.8195 235.2948 0320403  29.8332 332.0644 13.45891786609741"
      },
      "geometry": {
        "type": "Point",
        "coordinates": [
          -125.79682045586054,
          37.368108753207885
        ]
      }
    },
    {
      "type": "Feature",
      "properties": {
        "norad_id": 36990,
        "name": "FENGYUN 1C DEB",
        "group": "fengyun-1c-debris",
        "lat": 63.796662308479654,
        "lon": -68.9259499448503,
        "alt_km": 995.6935965878138,
        "timestamp": "2025-12-26T17:24:55.008192+00:00",
        "meta_object_name": "FENGYUN 1C DEB",
        "meta_object_id": "1999-025EBW",
        "meta_epoch": "2025-12-05T02:36:38.289600",
        "meta_mean_motion": 13.56914719,
        "meta_eccentricity": 0.0292772,
        "meta_inclination": 96.5839,
        "meta_ra_of_asc_node": 290.134,
        "meta_arg_of_pericenter": 44.0413,
        "meta_mean_anomaly": 318.3658,
        "meta_ephemeris_type": 0,
        "meta_classification_type": "U",
        "meta_norad_cat_id": 36990,
        "meta_element_set_no": 999,
        "meta_rev_at_epoch": 82784,
        "meta_bstar": 0.0013157618,
        "meta_mean_motion_dot": 1.212e-05,
        "meta_mean_motion_ddot": 0,
        "tle_line1": "1 36990U 99025EBW 25339.10877650  .00001212  00000+0  13158-2 0  9993",
        "tle_line2": "2 36990  96.5839 290.1340 0292772  44.0413 318.3658 13.56914719827842"
      },
      "geometry": {
        "type": "Point",
        "coordinates": [
          -68.9259499448503,
          63.796662308479654
        ]
      }
    }
  ]
}